OBJECT_NAME,OBJECT_ID,EPOCH,MEAN_MOTION,ECCENTRICITY,INCLINATION,RA_OF_ASC_NODE,ARG_OF_PERICENTER,MEAN_ANOMALY,EPHEMERIS_TYPE,CLASSIFICATION_TYPE,NORAD_CAT_ID,ELEMENT_SET_NO,REV_AT_EPOCH,BSTAR,MEAN_MOTION_DOT,MEAN_MOTION_DDOT
STARLINK-35018,2025-184R,2026-06-06T14:51:39.834720,15.05660254,.0001992,97.3968,209.6789,115.0455,245.0980,0,U,65288,999,4468,.37614E-3,.5375E-4,0
STARLINK-34845,2025-184S,2026-06-06T14:39:42.209280,15.05664271,.0002008,97.3972,209.6878,96.3583,263.7874,0,U,65289,999,4468,.46488E-3,.6659E-4,0
STARLINK-34984,2025-184T,2026-06-06T10:12:32.231520,15.05665684,.00014057,97.3988,209.4807,108.0709,252.0671,0,U,65290,999,4465,.63589276E-3,.9133E-4,0
STARLINK-35002,2025-184U,2026-06-06T14:15:45.758304,15.05661943,.0001811,97.3962,209.5540,105.0477,255.0951,0,U,65291,999,4467,.37088E-3,.5299E-4,0
STARLINK-35017,2025-184V,2026-06-06T14:31:43.592160,15.05667234,.0001692,97.3983,209.6996,85.1137,275.0283,0,U,65292,999,4463,.48234E-3,.6911E-4,0
STARLINK-34951,2025-184W,2026-06-06T02:29:58.598880,15.05660626,.0000706,97.4026,209.1474,133.5150,226.6137,0,U,65293,999,4460,.82136583E-3,.11816E-3,0
STARLINK-34613,2025-184X,2026-06-06T13:55:49.628928,15.05661169,.000228,97.3970,209.5764,142.3691,217.7696,0,U,65294,999,4467,.34297E-3,.4896E-4,0
STARLINK-34834,2025-184Y,2026-06-06T14:23:44.278656,15.05662779,.0002141,97.3953,209.5503,114.2850,245.8601,0,U,65295,999,4467,.34941E-3,.4989E-4,0
STARLINK-34872,2025-184Z,2026-06-06T14:07:47.157600,15.05662734,.0000899,97.3975,209.5668,116.8603,243.2716,0,U,65296,999,4467,.31508E-3,.4493E-4,0
DRESDEN,2025-185A,2026-06-06T04:28:59.348064,14.79142192,.00166136,97.9622,240.6090,123.1435,237.1373,0,U,65297,999,4220,.1941771E-2,.14399E-3,0
FOURIER,2025-185B,2026-06-06T04:27:12.282912,14.79150931,.00165494,97.9643,240.6637,122.2411,238.0407,0,U,65298,999,4221,.20937399E-2,.15536E-3,0
STARK,2025-185C,2026-06-06T12:21:28.770912,14.81075469,.00147356,97.9592,241.1831,122.7141,237.5494,0,U,65299,999,4227,.33731076E-3,.2569E-4,0
BASIL,2025-185E,2026-06-06T04:25:24.563712,14.79145173,.001583,97.9619,240.6650,118.0917,242.1896,0,U,65301,999,4221,.11191E-2,.8268E-4,0
DOJO,2025-185F,2026-06-06T04:23:41.633664,14.79147600,.00162519,97.9644,240.6712,120.3059,239.9763,0,U,65302,999,4221,.22646523E-2,.16808E-3,0
HULIANWANG DIGUI-73,2025-187A,2026-06-06T20:06:17.282592,13.29323372,.0000479,50.0049,242.9983,148.5519,211.5382,0,U,65305,999,3832,.65208E-4,-.94E-6,0
HULIANWANG DIGUI-74,2025-187B,2026-06-06T19:42:16.219584,13.29321591,.0000494,50.0091,243.0073,148.1073,211.9829,0,U,65306,999,3832,.7569E-4,-.89E-6,0
HULIANWANG DIGUI-75,2025-187C,2026-06-06T19:18:17.803872,13.29323182,.0000478,50.0083,242.9034,149.0528,211.0372,0,U,65307,999,3832,.71299E-4,-.91E-6,0
HULIANWANG DIGUI-76,2025-187D,2026-06-06T20:42:39.257568,13.29323817,.0000396,50.0008,243.0336,147.3384,212.7512,0,U,65308,999,3832,.63434E-4,-.95E-6,0
HULIANWANG DIGUI-77,2025-187E,2026-06-06T20:30:27.777888,13.29323675,.0000505,50.0042,243.0675,125.5359,234.5560,0,U,65309,999,3832,.67614E-4,-.93E-6,0
HULIANWANG DIGUI-78,2025-187F,2026-06-06T19:30:25.532928,13.29322873,.0000463,50.0107,243.0018,148.5783,211.5117,0,U,65310,999,3832,.81876E-4,-.86E-6,0
HULIANWANG DIGUI-79,2025-187G,2026-06-06T19:06:08.390880,13.29319704,.00005,50.0037,243.4122,152.0417,208.0482,0,U,65311,999,3831,.6776E-4,-.93E-6,0
HULIANWANG DIGUI-80,2025-187H,2026-06-06T18:30:10.219104,13.29322859,.0000508,50.0027,243.2619,125.6015,234.4905,0,U,65312,999,3831,.75912E-4,-.89E-6,0
HULIANWANG DIGUI-81,2025-187J,2026-06-06T19:54:21.644352,13.29324719,.0000464,50.0067,242.9970,148.1021,211.9880,0,U,65313,999,3833,.71439E-4,-.91E-6,0
PELICAN-3,2025-188A,2026-06-06T11:02:53.793312,15.40728953,.00018351,97.1967,233.7731,93.8887,266.2570,0,U,65315,999,4366,.25156888E-3,.10201E-3,0
PELICAN-4,2025-188B,2026-06-05T22:58:56.309088,15.40698142,.00019668,97.2006,233.4284,84.1007,276.0465,0,U,65316,999,4358,.36313854E-4,.1401E-4,0
NAOS,2025-188C,2026-06-06T18:57:12.758400,15.38599411,.0000766,97.2029,233.2884,146.3877,213.7418,0,U,65317,999,4366,.30155E-3,.11417E-3,0
CAPELLA-16 (ACADIA-6),2025-188D,2026-06-06T04:05:40.726464,14.94650418,.00024268,97.7383,232.4906,273.0482,87.0460,0,U,65318,999,4227,.91033201E-3,.9818E-4,0
FFLY03,2025-188E,2026-06-06T19:20:56.565600,14.92734192,.0009418,97.7323,233.1106,132.2009,228.0011,0,U,65319,999,4236,.1739E-3,.1741E-4,0
FFLY01,2025-188F,2026-06-06T20:20:29.502816,14.92614493,.0009095,97.7381,233.2598,200.9927,159.0920,0,U,65320,999,4236,.15141E-3,.1503E-4,0
LEAP-1,2025-188G,2026-06-06T20:37:01.441344,14.91484855,.0001993,97.7361,232.4461,219.6157,140.4917,0,U,65321,999,4231,.24971E-3,.2443E-4,0
