STARLINK-35018          
1 65288U 25184R   26157.61921105  .00005375  00000+0  37614-3 0  9998
2 65288  97.3968 209.6789 0001992 115.0455 245.0980 15.05660254 44680
STARLINK-34845          
1 65289U 25184S   26157.61090520  .00006659  00000+0  46488-3 0  9992
2 65289  97.3972 209.6878 0002008  96.3583 263.7874 15.05664271 44689
STARLINK-34984          
1 65290U 25184T   26157.42537305  .00009133  00000+0  63589-3 0  9991
2 65290  97.3988 209.4807 0001405 108.0709 252.0671 15.05665684 44651
STARLINK-35002          
1 65291U 25184U   26157.59427961  .00005299  00000+0  37088-3 0  9990
2 65291  97.3962 209.5540 0001811 105.0477 255.0951 15.05661943 44679
STARLINK-35017          
1 65292U 25184V   26157.60536565  .00006911  00000+0  48234-3 0  9991
2 65292  97.3983 209.6996 0001692  85.1137 275.0283 15.05667234 44632
STARLINK-34951          
1 65293U 25184W   26157.10415045  .00011816  00000+0  82137-3 0  9996
2 65293  97.4026 209.1474 0000706 133.5150 226.6137 15.05660626 44601
STARLINK-34613          
1 65294U 25184X   26157.58043552  .00004896  00000+0  34297-3 0  9993
2 65294  97.3970 209.5764 0002280 142.3691 217.7696 15.05661169 44673
STARLINK-34834          
1 65295U 25184Y   26157.59981804  .00004989  00000+0  34941-3 0  9995
2 65295  97.3953 209.5503 0002141 114.2850 245.8601 15.05662779 44673
STARLINK-34872          
1 65296U 25184Z   26157.58874025  .00004493  00000+0  31508-3 0  9997
2 65296  97.3975 209.5668 0000899 116.8603 243.2716 15.05662734 44672
DRESDEN                 
1 65297U 25185A   26157.18679801  .00014399  00000+0  19418-2 0  9991
2 65297  97.9622 240.6090 0016613 123.1435 237.1373 14.79142192 42207
FOURIER                 
1 65298U 25185B   26157.18555883  .00015536  00000+0  20937-2 0  9997
2 65298  97.9643 240.6637 0016549 122.2411 238.0407 14.79150931 42219
STARK                   
1 65299U 25185C   26157.51491633  .00002569  00000+0  33731-3 0  9996
2 65299  97.9592 241.1831 0014735 122.7141 237.5494 14.81075469 42276
BASIL                   
1 65301U 25185E   26157.18431208  .00008268  00000+0  11191-2 0  9992
2 65301  97.9619 240.6650 0015830 118.0917 242.1896 14.79145173 42218
DOJO                    
1 65302U 25185F   26157.18312076  .00016808  00000+0  22647-2 0  9991
2 65302  97.9644 240.6712 0016251 120.3059 239.9763 14.79147600 42211
HULIANWANG DIGUI-73     
1 65305U 25187A   26157.83770003 -.00000094  00000+0  65208-4 0  9999
2 65305  50.0049 242.9983 0000479 148.5519 211.5382 13.29323372 38322
HULIANWANG DIGUI-74     
1 65306U 25187B   26157.82102106 -.00000089  00000+0  75690-4 0  9992
2 65306  50.0091 243.0073 0000494 148.1073 211.9829 13.29321591 38321
HULIANWANG DIGUI-75     
1 65307U 25187C   26157.80437273 -.00000091  00000+0  71299-4 0  9991
2 65307  50.0083 242.9034 0000478 149.0528 211.0372 13.29323182 38327
HULIANWANG DIGUI-76     
1 65308U 25187D   26157.86295437 -.00000095  00000+0  63434-4 0  9998
2 65308  50.0008 243.0336 0000396 147.3384 212.7512 13.29323817 38321
HULIANWANG DIGUI-77     
1 65309U 25187E   26157.85448817 -.00000093  00000+0  67614-4 0  9992
2 65309  50.0042 243.0675 0000505 125.5359 234.5560 13.29323675 38325
HULIANWANG DIGUI-78     
1 65310U 25187F   26157.81279552 -.00000086  00000+0  81876-4 0  9996
2 65310  50.0107 243.0018 0000463 148.5783 211.5117 13.29322873 38321
HULIANWANG DIGUI-79     
1 65311U 25187G   26157.79593045 -.00000093  00000+0  67760-4 0  9994
2 65311  50.0037 243.4122 0000500 152.0417 208.0482 13.29319704 38314
HULIANWANG DIGUI-80     
1 65312U 25187H   26157.77095161 -.00000089  00000+0  75912-4 0  9992
2 65312  50.0027 243.2619 0000508 125.6015 234.4905 13.29322859 38319
HULIANWANG DIGUI-81     
1 65313U 25187J   26157.82941718 -.00000091  00000+0  71439-4 0  9990
2 65313  50.0067 242.9970 0000464 148.1021 211.9880 13.29324719 38339
PELICAN-3               
1 65315U 25188A   26157.46034483  .00010201  00000+0  25157-3 0  9993
2 65315  97.1967 233.7731 0001835  93.8887 266.2570 15.40728953 43668
PELICAN-4               
1 65316U 25188B   26156.95759617  .00001401  00000+0  36314-4 0  9990
2 65316  97.2006 233.4284 0001966  84.1007 276.0465 15.40698142 43585
NAOS                    
1 65317U 25188C   26157.78973100  .00011417  00000+0  30155-3 0  9992
2 65317  97.2029 233.2884 0000766 146.3877 213.7418 15.38599411 43669
CAPELLA-16 (ACADIA-6)   
1 65318U 25188D   26157.17061026  .00009818  00000+0  91033-3 0  9995
2 65318  97.7383 232.4906 0002426 273.0482  87.0460 14.94650418 42270
FFLY03                  
1 65319U 25188E   26157.80621025  .00001741  00000+0  17390-3 0  9998
2 65319  97.7323 233.1106 0009418 132.2009 228.0011 14.92734192 42363
FFLY01                  
1 65320U 25188F   26157.84756369  .00001503  00000+0  15141-3 0  9992
2 65320  97.7381 233.2598 0009095 200.9927 159.0920 14.92614493 42361
LEAP-1                  
1 65321U 25188G   26157.85904446  .00002443  00000+0  24971-3 0  9990
2 65321  97.7361 232.4461 0001993 219.6157 140.4917 14.91484855 42312
